LEMUR-2-ANDIS           
1 42838U 17042P   26068.55941107  .00023598  00000+0  79875-3 0  9998
2 42838  97.3659 249.7950 0009101   4.3248 355.8070 15.30557934473198
STARLINK-34474          
1 64474U 25133C   26068.41176458  .00018785  00000+0  64493-3 0  9994
2 64474  53.1580 118.2474 0001294  64.4406 295.6728 15.30190526 41125
