[{"OBJECT_NAME":"LEMUR-2-ANDIS","OBJECT_ID":"2017-042P","EPOCH":"2026-03-09T13:25:33.116448","MEAN_MOTION":15.30557934,"ECCENTRICITY":0.0009101,"INCLINATION":97.3659,"RA_OF_ASC_NODE":249.795,"ARG_OF_PERICENTER":4.3248,"MEAN_ANOMALY":355.807,"EPHEMERIS_TYPE":0,"CLASSIFICATION_TYPE":"U","NORAD_CAT_ID":42838,"ELEMENT_SET_NO":999,"REV_AT_EPOCH":47319,"BSTAR":0.00079875,"MEAN_MOTION_DOT":0.00023598,"MEAN_MOTION_DDOT":0},{"OBJECT_NAME":"STARLINK-34474","OBJECT_ID":"2025-133C","EPOCH":"2026-03-09T09:52:56.459712","MEAN_MOTION":15.30190526,"ECCENTRICITY":0.00012945,"INCLINATION":53.158,"RA_OF_ASC_NODE":118.2474,"ARG_OF_PERICENTER":64.4406,"MEAN_ANOMALY":295.6728,"EPHEMERIS_TYPE":0,"CLASSIFICATION_TYPE":"U","NORAD_CAT_ID":64474,"ELEMENT_SET_NO":999,"REV_AT_EPOCH":4112,"BSTAR":0.00064493175,"MEAN_MOTION_DOT":0.00018785,"MEAN_MOTION_DDOT":0}]
